start=new Date('2023-03-08T00:00:00.000Z').valueOf();
sats=[{"ECCENTRICITY":"0.00050890","OBJECT_NAME":"STARLINK-4390","TLE_LINE1":"1 53653U 22105F   23066.93806169 -.00000295  00000-0 -18373-4 0  9995","OBJECT_ID":"2022-105F","PERIOD":"95.920","NORAD_CAT_ID":"53653","MEAN_MOTION_DOT":"-0.00000295","ARG_OF_PERICENTER":"80.9264","MEAN_ELEMENT_THEORY":"SGP4","EPHEMERIS_TYPE":"0","RCS_SIZE":"LARGE","APOAPSIS":"566.548","FILE":"3854072","GP_ID":"227676374","ELEMENT_SET_NO":"999","REV_AT_EPOCH":"2853","CENTER_NAME":"EARTH","MEAN_MOTION_DDOT":"0.0000000000000","SEMIMAJOR_AXIS":"6941.151","INCLINATION":"97.6498","SITE":"AFWTR","DECAY_DATE":null,"PERIAPSIS":"559.483","BSTAR":"-0.00001837300000","COUNTRY_CODE":"US","TLE_LINE2":"2 53653  97.6498 309.4649 0005089  80.9264 279.2536 15.01258788 28530","MEAN_ANOMALY":"279.2536","CLASSIFICATION_TYPE":"U","REF_FRAME":"TEME","TIME_SYSTEM":"UTC","MEAN_MOTION":"15.01258788","LAUNCH_DATE":"2022-08-31","EPOCH":"2023-03-07T22:30:48.530016","RA_OF_ASC_NODE":"309.4649","OBJECT_TYPE":"PAYLOAD"},{"ECCENTRICITY":"0.00051460","OBJECT_NAME":"STARLINK-4420","TLE_LINE1":"1 53654U 22105G   23066.93411362  .00000591  00000-0  50632-4 0  9994","PERIOD":"95.920","OBJECT_ID":"2022-105G","NORAD_CAT_ID":"53654","MEAN_MOTION_DOT":"0.00000591","ARG_OF_PERICENTER":"73.7968","MEAN_ELEMENT_THEORY":"SGP4","EPHEMERIS_TYPE":"0","RCS_SIZE":"LARGE","APOAPSIS":"566.593","FILE":"3854072","GP_ID":"227676623","ELEMENT_SET_NO":"999","REV_AT_EPOCH":"2853","MEAN_MOTION_DDOT":"0.0000000000000","CENTER_NAME":"EARTH","SEMIMAJOR_AXIS":"6941.156","INCLINATION":"97.6495","SITE":"AFWTR","DECAY_DATE":null,"PERIAPSIS":"559.449","COUNTRY_CODE":"US","BSTAR":"0.00005063200000","TLE_LINE2":"2 53654  97.6495 309.4573 0005146  73.7968 286.3822 15.01257059 28536","MEAN_ANOMALY":"286.3822","CLASSIFICATION_TYPE":"U","REF_FRAME":"TEME","MEAN_MOTION":"15.01257059","TIME_SYSTEM":"UTC","LAUNCH_DATE":"2022-08-31","EPOCH":"2023-03-07T22:25:07.416768","RA_OF_ASC_NODE":"309.4573","OBJECT_TYPE":"PAYLOAD"},{"TIME_SYSTEM":"UTC","MEAN_MOTION":"15.01260924","EPOCH":"2023-03-07T22:30:27.325728","LAUNCH_DATE":"2022-08-31","OBJECT_TYPE":"PAYLOAD","RA_OF_ASC_NODE":"309.4659","COUNTRY_CODE":"US","BSTAR":"0.00015489000000","PERIAPSIS":"559.396","TLE_LINE2":"2 53655  97.6515 309.4659 0005205  85.9189 274.2630 15.01260924 28539","CLASSIFICATION_TYPE":"U","MEAN_ANOMALY":"274.2630","REF_FRAME":"TEME","DECAY_DATE":null,"SEMIMAJOR_AXIS":"6941.144","INCLINATION":"97.6515","SITE":"AFWTR","REV_AT_EPOCH":"2853","MEAN_MOTION_DDOT":"0.0000000000000","CENTER_NAME":"EARTH","APOAPSIS":"566.622","FILE":"3854072","GP_ID":"227677870","ELEMENT_SET_NO":"999","MEAN_MOTION_DOT":"0.00001931","ARG_OF_PERICENTER":"85.9189","MEAN_ELEMENT_THEORY":"SGP4","RCS_SIZE":"MEDIUM","EPHEMERIS_TYPE":"0","OBJECT_NAME":"STARLINK-4470","TLE_LINE1":"1 53655U 22105H   23066.93781627  .00001931  00000-0  15489-3 0  9998","ECCENTRICITY":"0.00052050","OBJECT_ID":"2022-105H","PERIOD":"95.919","NORAD_CAT_ID":"53655"},{"TLE_LINE1":"1 53656U 22105J   23066.93065589  .00013170  00000-0  10275-2 0  9996","OBJECT_NAME":"STARLINK-4466","ECCENTRICITY":"0.00065270","NORAD_CAT_ID":"53656","PERIOD":"95.919","OBJECT_ID":"2022-105J","ARG_OF_PERICENTER":"90.5860","MEAN_MOTION_DOT":"0.00013170","RCS_SIZE":"LARGE","EPHEMERIS_TYPE":"0","MEAN_ELEMENT_THEORY":"SGP4","GP_ID":"227677609","FILE":"3854072","APOAPSIS":"567.530","ELEMENT_SET_NO":"999","CENTER_NAME":"EARTH","MEAN_MOTION_DDOT":"0.0000000000000","REV_AT_EPOCH":"2853","INCLINATION":"97.6535","SEMIMAJOR_AXIS":"6941.134","SITE":"AFWTR","DECAY_DATE":null,"TLE_LINE2":"2 53656  97.6535 309.4480 0006527  90.5860 269.6112 15.01264117 28531","BSTAR":"0.00102750000000","COUNTRY_CODE":"US","PERIAPSIS":"558.469","REF_FRAME":"TEME","CLASSIFICATION_TYPE":"U","MEAN_ANOMALY":"269.6112","MEAN_MOTION":"15.01264117","TIME_SYSTEM":"UTC","OBJECT_TYPE":"PAYLOAD","RA_OF_ASC_NODE":"309.4480","LAUNCH_DATE":"2022-08-31","EPOCH":"2023-03-07T22:20:08.668896"},{"REV_AT_EPOCH":"2850","MEAN_MOTION_DDOT":"0.0000000000000","CENTER_NAME":"EARTH","APOAPSIS":"567.585","FILE":"3854072","GP_ID":"227676874","ELEMENT_SET_NO":"999","MEAN_MOTION_DOT":"0.00011836","ARG_OF_PERICENTER":"84.8148","MEAN_ELEMENT_THEORY":"SGP4","EPHEMERIS_TYPE":"0","RCS_SIZE":"LARGE","ECCENTRICITY":"0.00066620","TLE_LINE1":"1 53657U 22105K   23066.73600709  .00011836  00000-0  92379-3 0  9997","OBJECT_NAME":"STARLINK-4469","OBJECT_ID":"2022-105K","PERIOD":"95.918","NORAD_CAT_ID":"53657","TIME_SYSTEM":"UTC","MEAN_MOTION":"15.01276412","EPOCH":"2023-03-07T17:39:51.012576","LAUNCH_DATE":"2022-08-31","RA_OF_ASC_NODE":"309.2623","OBJECT_TYPE":"PAYLOAD","PERIAPSIS":"558.337","COUNTRY_CODE":"US","BSTAR":"0.00092379000000","TLE_LINE2":"2 53657  97.6516 309.2623 0006662  84.8148 275.3836 15.01276412 28508","MEAN_ANOMALY":"275.3836","CLASSIFICATION_TYPE":"U","REF_FRAME":"TEME","DECAY_DATE":null,"SEMIMAJOR_AXIS":"6941.096","INCLINATION":"97.6516","SITE":"AFWTR"},{"EPHEMERIS_TYPE":"0","RCS_SIZE":"LARGE","MEAN_ELEMENT_THEORY":"SGP4","ARG_OF_PERICENTER":"80.5321","MEAN_MOTION_DOT":"0.00004324","NORAD_CAT_ID":"53658","OBJECT_ID":"2022-105L","PERIOD":"95.920","ECCENTRICITY":"0.00049870","OBJECT_NAME":"STARLINK-4452","TLE_LINE1":"1 53658U 22105L   23066.93041079  .00004324  00000-0  34105-3 0  9996","MEAN_MOTION_DDOT":"0.0000000000000","CENTER_NAME":"EARTH","REV_AT_EPOCH":"2853","ELEMENT_SET_NO":"999","GP_ID":"227677123","APOAPSIS":"566.495","FILE":"3854072","DECAY_DATE":null,"SITE":"AFWTR","INCLINATION":"97.6502","SEMIMAJOR_AXIS":"6941.168","RA_OF_ASC_NODE":"309.4518","OBJECT_TYPE":"PAYLOAD","LAUNCH_DATE":"2022-08-31","EPOCH":"2023-03-07T22:19:47.492256","MEAN_MOTION":"15.01253056","TIME_SYSTEM":"UTC","REF_FRAME":"TEME","MEAN_ANOMALY":"279.6467","CLASSIFICATION_TYPE":"U","TLE_LINE2":"2 53658  97.6502 309.4518 0004987  80.5321 279.6467 15.01253056 28532","PERIAPSIS":"559.572","COUNTRY_CODE":"US","BSTAR":"0.00034105000000"},{"MEAN_MOTION":"15.01265829","TIME_SYSTEM":"UTC","OBJECT_TYPE":"PAYLOAD","RA_OF_ASC_NODE":"309.4528","LAUNCH_DATE":"2022-08-31","EPOCH":"2023-03-07T22:22:27.468768","TLE_LINE2":"2 53659  97.6527 309.4528 0006602  84.8511 275.3467 15.01265829 28539","COUNTRY_CODE":"US","BSTAR":"0.00056681000000","PERIAPSIS":"558.411","REF_FRAME":"TEME","CLASSIFICATION_TYPE":"U","MEAN_ANOMALY":"275.3467","DECAY_DATE":null,"INCLINATION":"97.6527","SEMIMAJOR_AXIS":"6941.129","SITE":"AFWTR","MEAN_MOTION_DDOT":"0.0000000000000","CENTER_NAME":"EARTH","REV_AT_EPOCH":"2853","GP_ID":"227677371","APOAPSIS":"567.576","FILE":"3854072","ELEMENT_SET_NO":"999","ARG_OF_PERICENTER":"84.8511","MEAN_MOTION_DOT":"0.00007233","RCS_SIZE":"LARGE","EPHEMERIS_TYPE":"0","MEAN_ELEMENT_THEORY":"SGP4","OBJECT_NAME":"STARLINK-4463","TLE_LINE1":"1 53659U 22105M   23066.93226237  .00007233  00000-0  56681-3 0  9993","ECCENTRICITY":"0.00066020","NORAD_CAT_ID":"53659","PERIOD":"95.919","OBJECT_ID":"2022-105M"},{"NORAD_CAT_ID":"53660","PERIOD":"95.919","OBJECT_ID":"2022-105N","ECCENTRICITY":"0.00039110","TLE_LINE1":"1 53660U 22105N   23066.92485131  .00008035  00000-0  62922-3 0  9990","OBJECT_NAME":"STARLINK-4473","EPHEMERIS_TYPE":"0","RCS_SIZE":"LARGE","MEAN_ELEMENT_THEORY":"SGP4","ARG_OF_PERICENTER":"93.7256","MEAN_MOTION_DOT":"0.00008035","ELEMENT_SET_NO":"999","GP_ID":"227678109","APOAPSIS":"565.697","FILE":"3854072","CENTER_NAME":"EARTH","MEAN_MOTION_DDOT":"0.0000000000000","REV_AT_EPOCH":"2853","SITE":"AFWTR","INCLINATION":"97.6531","SEMIMAJOR_AXIS":"6941.117","DECAY_DATE":null,"REF_FRAME":"TEME","MEAN_ANOMALY":"266.4416","CLASSIFICATION_TYPE":"U","TLE_LINE2":"2 53660  97.6531 309.4431 0003911  93.7256 266.4416 15.01269625 28537","PERIAPSIS":"560.268","COUNTRY_CODE":"US","BSTAR":"0.00062922000000","RA_OF_ASC_NODE":"309.4431","OBJECT_TYPE":"PAYLOAD","EPOCH":"2023-03-07T22:11:47.153184","LAUNCH_DATE":"2022-08-31","MEAN_MOTION":"15.01269625","TIME_SYSTEM":"UTC"},{"RA_OF_ASC_NODE":"309.4473","OBJECT_TYPE":"PAYLOAD","EPOCH":"2023-03-07T22:17:07.499328","LAUNCH_DATE":"2022-08-31","MEAN_MOTION":"15.01268054","TIME_SYSTEM":"UTC","REF_FRAME":"TEME","MEAN_ANOMALY":"279.7076","CLASSIFICATION_TYPE":"U","TLE_LINE2":"2 53661  97.6532 309.4473 0005568  80.4777 279.7076 15.01268054 28530","PERIAPSIS":"559.122","BSTAR":"0.00033640000000","COUNTRY_CODE":"US","DECAY_DATE":null,"SITE":"AFWTR","INCLINATION":"97.6532","SEMIMAJOR_AXIS":"6941.122","CENTER_NAME":"EARTH","MEAN_MOTION_DDOT":"0.0000000000000","REV_AT_EPOCH":"2853","ELEMENT_SET_NO":"999","GP_ID":"227676375","APOAPSIS":"566.852","FILE":"3854072","EPHEMERIS_TYPE":"0","RCS_SIZE":"LARGE","MEAN_ELEMENT_THEORY":"SGP4","ARG_OF_PERICENTER":"80.4777","MEAN_MOTION_DOT":"0.00004266","NORAD_CAT_ID":"53661","OBJECT_ID":"2022-105P","PERIOD":"95.919","ECCENTRICITY":"0.00055680","OBJECT_NAME":"STARLINK-4472","TLE_LINE1":"1 53661U 22105P   23066.92855902  .00004266  00000-0  33640-3 0  9995"},{"MEAN_ANOMALY":"263.9984","CLASSIFICATION_TYPE":"U","REF_FRAME":"TEME","PERIAPSIS":"561.165","BSTAR":"0.00097316000000","COUNTRY_CODE":"US","TLE_LINE2":"2 53662  97.6524 309.4399 0002580  96.1534 263.9984 15.01278159 28535","EPOCH":"2023-03-07T22:06:27.076608","LAUNCH_DATE":"2022-08-31","RA_OF_ASC_NODE":"309.4399","OBJECT_TYPE":"PAYLOAD","TIME_SYSTEM":"UTC","MEAN_MOTION":"15.01278159","SITE":"AFWTR","SEMIMAJOR_AXIS":"6941.091","INCLINATION":"97.6524","DECAY_DATE":null,"ELEMENT_SET_NO":"999","APOAPSIS":"564.747","FILE":"3854072","GP_ID":"227676624","REV_AT_EPOCH":"2853","MEAN_MOTION_DDOT":"0.0000000000000","CENTER_NAME":"EARTH","OBJECT_ID":"2022-105Q","PERIOD":"95.918","NORAD_CAT_ID":"53662","ECCENTRICITY":"0.00025800","TLE_LINE1":"1 53662U 22105Q   23066.92114672  .00012469  00000-0  97316-3 0  9992","OBJECT_NAME":"STARLINK-4357","MEAN_ELEMENT_THEORY":"SGP4","EPHEMERIS_TYPE":"0","RCS_SIZE":"LARGE","MEAN_MOTION_DOT":"0.00012469","ARG_OF_PERICENTER":"96.1534"}];
